start=new Date('2022-05-20T00:00:00.000Z').valueOf();
sats=[{"CLASSIFICATION_TYPE":"U","TLE_LINE1":"1 50813U 22001L   22139.91667824 -.00011247  00000-0 -68957-3 0  9997","SITE":"AFETR","MEAN_MOTION":"15.08843041","ELEMENT_SET_NO":"999","REV_AT_EPOCH":"130","DECAY_DATE":null,"FILE":"3453812","MEAN_ELEMENT_THEORY":"SGP4","RCS_SIZE":"LARGE","TLE_LINE2":"2 50813  53.2208 278.0467 0002089  32.4269 180.6703 15.08843041  1301","ECCENTRICITY":"0.00020890","OBJECT_ID":"2022-001L","SEMIMAJOR_AXIS":"6917.871","GP_ID":"203988867","EPHEMERIS_TYPE":"0","PERIOD":"95.437","INCLINATION":"53.2208","TIME_SYSTEM":"UTC","EPOCH":"2022-05-19T22:00:00.999936","BSTAR":"-0.00068957000000","OBJECT_NAME":"STARLINK-3349","ARG_OF_PERICENTER":"32.4269","CENTER_NAME":"EARTH","OBJECT_TYPE":"PAYLOAD","COUNTRY_CODE":"US","APOAPSIS":"541.181","MEAN_MOTION_DOT":"-0.00011247","NORAD_CAT_ID":"50813","MEAN_MOTION_DDOT":"0.0000000000000","LAUNCH_DATE":"2022-01-06","PERIAPSIS":"538.291","RA_OF_ASC_NODE":"278.0467","MEAN_ANOMALY":"180.6703","REF_FRAME":"TEME"},{"EPOCH":"2022-05-19T22:00:00.999936","BSTAR":"0.00043397000000","ARG_OF_PERICENTER":"52.8497","OBJECT_NAME":"STARLINK-3324","TIME_SYSTEM":"UTC","COUNTRY_CODE":"US","OBJECT_TYPE":"PAYLOAD","CENTER_NAME":"EARTH","MEAN_MOTION_DDOT":"0.0000000000000","NORAD_CAT_ID":"50814","PERIAPSIS":"538.602","LAUNCH_DATE":"2022-01-06","APOAPSIS":"540.899","MEAN_MOTION_DOT":"0.00006625","MEAN_ANOMALY":"270.4526","RA_OF_ASC_NODE":"288.0391","REF_FRAME":"TEME","CLASSIFICATION_TYPE":"U","TLE_LINE1":"1 50814U 22001M   22139.91667824  .00006625  00000-0  43397-3 0  9991","DECAY_DATE":null,"MEAN_ELEMENT_THEORY":"SGP4","FILE":"3453812","RCS_SIZE":"LARGE","SITE":"AFETR","ELEMENT_SET_NO":"999","MEAN_MOTION":"15.08838259","REV_AT_EPOCH":"130","ECCENTRICITY":"0.00016600","OBJECT_ID":"2022-001M","SEMIMAJOR_AXIS":"6917.886","TLE_LINE2":"2 50814  53.2157 288.0391 0001660  52.8497 270.4526 15.08838259  1301","PERIOD":"95.438","INCLINATION":"53.2157","GP_ID":"203990118","EPHEMERIS_TYPE":"0"},{"TIME_SYSTEM":"UTC","OBJECT_NAME":"STARLINK-3234","ARG_OF_PERICENTER":"39.2595","BSTAR":"-0.00012697000000","EPOCH":"2022-05-19T22:00:00.999936","CENTER_NAME":"EARTH","OBJECT_TYPE":"PAYLOAD","COUNTRY_CODE":"US","MEAN_MOTION_DOT":"-0.00002309","APOAPSIS":"541.087","PERIAPSIS":"538.378","LAUNCH_DATE":"2022-01-06","MEAN_MOTION_DDOT":"0.0000000000000","NORAD_CAT_ID":"50815","REF_FRAME":"TEME","MEAN_ANOMALY":"224.0616","RA_OF_ASC_NODE":"288.0382","TLE_LINE1":"1 50815U 22001N   22139.91667824 -.00002309  00000-0 -12697-3 0  9998","CLASSIFICATION_TYPE":"U","REV_AT_EPOCH":"130","ELEMENT_SET_NO":"999","SITE":"AFETR","MEAN_MOTION":"15.08844116","FILE":"3453812","RCS_SIZE":"LARGE","MEAN_ELEMENT_THEORY":"SGP4","DECAY_DATE":null,"TLE_LINE2":"2 50815  53.2152 288.0382 0001958  39.2595 224.0616 15.08844116  1309","SEMIMAJOR_AXIS":"6917.868","OBJECT_ID":"2022-001N","ECCENTRICITY":"0.00019580","EPHEMERIS_TYPE":"0","GP_ID":"203989869","PERIOD":"95.437","INCLINATION":"53.2152"},{"ELEMENT_SET_NO":"999","SITE":"AFETR","MEAN_MOTION":"15.08837803","REV_AT_EPOCH":"130","DECAY_DATE":null,"RCS_SIZE":"LARGE","FILE":"3453812","MEAN_ELEMENT_THEORY":"SGP4","CLASSIFICATION_TYPE":"U","TLE_LINE1":"1 50816U 22001P   22139.91667824  .00003340  00000-0  22787-3 0  9994","GP_ID":"203989117","EPHEMERIS_TYPE":"0","PERIOD":"95.438","INCLINATION":"53.2170","TLE_LINE2":"2 50816  53.2170 288.0622 0001958  39.1029  24.1882 15.08837803  1307","ECCENTRICITY":"0.00019580","OBJECT_ID":"2022-001P","SEMIMAJOR_AXIS":"6917.887","CENTER_NAME":"EARTH","OBJECT_TYPE":"PAYLOAD","COUNTRY_CODE":"US","TIME_SYSTEM":"UTC","EPOCH":"2022-05-19T22:00:00.999936","BSTAR":"0.00022787000000","OBJECT_NAME":"STARLINK-3342","ARG_OF_PERICENTER":"39.1029","MEAN_ANOMALY":"24.1882","RA_OF_ASC_NODE":"288.0622","REF_FRAME":"TEME","APOAPSIS":"541.107","MEAN_MOTION_DOT":"0.00003340","MEAN_MOTION_DDOT":"0.0000000000000","NORAD_CAT_ID":"50816","PERIAPSIS":"538.398","LAUNCH_DATE":"2022-01-06"},{"RA_OF_ASC_NODE":"288.0442","MEAN_ANOMALY":"242.3799","REF_FRAME":"TEME","APOAPSIS":"541.059","MEAN_MOTION_DOT":"0.00035263","MEAN_MOTION_DDOT":"0.0000000000000","NORAD_CAT_ID":"50817","PERIAPSIS":"538.558","LAUNCH_DATE":"2022-01-06","CENTER_NAME":"EARTH","OBJECT_TYPE":"PAYLOAD","COUNTRY_CODE":"US","TIME_SYSTEM":"UTC","EPOCH":"2022-05-19T22:00:00.999936","BSTAR":"0.00222390000000","OBJECT_NAME":"STARLINK-3341","ARG_OF_PERICENTER":"40.9164","GP_ID":"203989367","EPHEMERIS_TYPE":"0","PERIOD":"95.439","INCLINATION":"53.2166","TLE_LINE2":"2 50817  53.2166 288.0442 0001807  40.9164 242.3799 15.08819363  1308","ECCENTRICITY":"0.00018070","OBJECT_ID":"2022-001Q","SEMIMAJOR_AXIS":"6917.943","ELEMENT_SET_NO":"999","SITE":"AFETR","MEAN_MOTION":"15.08819363","REV_AT_EPOCH":"130","DECAY_DATE":null,"MEAN_ELEMENT_THEORY":"SGP4","FILE":"3453812","RCS_SIZE":"LARGE","CLASSIFICATION_TYPE":"U","TLE_LINE1":"1 50817U 22001Q   22139.91667824  .00035263  00000-0  22239-2 0  9995"},{"REF_FRAME":"TEME","RA_OF_ASC_NODE":"288.0558","MEAN_ANOMALY":"354.4411","MEAN_MOTION_DOT":"0.00004845","APOAPSIS":"541.324","NORAD_CAT_ID":"50818","MEAN_MOTION_DDOT":"0.0000000000000","PERIAPSIS":"538.205","LAUNCH_DATE":"2022-01-06","OBJECT_TYPE":"PAYLOAD","CENTER_NAME":"EARTH","COUNTRY_CODE":"US","TIME_SYSTEM":"UTC","EPOCH":"2022-05-19T22:00:00.999936","ARG_OF_PERICENTER":"28.8875","OBJECT_NAME":"STARLINK-3336","BSTAR":"0.00032235000000","EPHEMERIS_TYPE":"0","GP_ID":"203989619","INCLINATION":"53.2156","PERIOD":"95.438","TLE_LINE2":"2 50818  53.2156 288.0558 0002254  28.8875 354.4411 15.08833808  1303","ECCENTRICITY":"0.00022540","OBJECT_ID":"2022-001R","SEMIMAJOR_AXIS":"6917.899","MEAN_MOTION":"15.08833808","SITE":"AFETR","ELEMENT_SET_NO":"999","REV_AT_EPOCH":"130","DECAY_DATE":null,"MEAN_ELEMENT_THEORY":"SGP4","FILE":"3453812","RCS_SIZE":"LARGE","CLASSIFICATION_TYPE":"U","TLE_LINE1":"1 50818U 22001R   22139.91667824  .00004845  00000-0  32235-3 0  9996"},{"EPOCH":"2022-05-19T22:00:00.999936","BSTAR":"0.00034703000000","OBJECT_NAME":"STARLINK-3327","ARG_OF_PERICENTER":"55.8806","TIME_SYSTEM":"UTC","COUNTRY_CODE":"US","CENTER_NAME":"EARTH","OBJECT_TYPE":"PAYLOAD","MEAN_MOTION_DDOT":"0.0000000000000","NORAD_CAT_ID":"50819","LAUNCH_DATE":"2022-01-06","PERIAPSIS":"538.744","APOAPSIS":"540.792","MEAN_MOTION_DOT":"0.00005238","MEAN_ANOMALY":"287.4366","RA_OF_ASC_NODE":"288.0379","REF_FRAME":"TEME","CLASSIFICATION_TYPE":"U","TLE_LINE1":"1 50819U 22001S   22139.91667824  .00005238  00000-0  34703-3 0  9996","DECAY_DATE":null,"RCS_SIZE":"LARGE","FILE":"3453812","MEAN_ELEMENT_THEORY":"SGP4","ELEMENT_SET_NO":"999","SITE":"AFETR","MEAN_MOTION":"15.08832610","REV_AT_EPOCH":"130","ECCENTRICITY":"0.00014800","SEMIMAJOR_AXIS":"6917.903","OBJECT_ID":"2022-001S","TLE_LINE2":"2 50819  53.2159 288.0379 0001480  55.8806 287.4366 15.08832610  1306","PERIOD":"95.438","INCLINATION":"53.2159","GP_ID":"203990369","EPHEMERIS_TYPE":"0"},{"FILE":"3453812","RCS_SIZE":"LARGE","MEAN_ELEMENT_THEORY":"SGP4","DECAY_DATE":null,"REV_AT_EPOCH":"130","SITE":"AFETR","ELEMENT_SET_NO":"999","MEAN_MOTION":"15.08824407","TLE_LINE1":"1 50820U 22001T   22139.91667824  .00026666  00000-0  16879-2 0  9999","CLASSIFICATION_TYPE":"U","PERIOD":"95.439","INCLINATION":"53.2170","GP_ID":"203988618","EPHEMERIS_TYPE":"0","OBJECT_ID":"2022-001T","SEMIMAJOR_AXIS":"6917.928","ECCENTRICITY":"0.00019290","TLE_LINE2":"2 50820  53.2170 288.0616 0001929  40.1700  43.1655 15.08824407  1306","COUNTRY_CODE":"US","CENTER_NAME":"EARTH","OBJECT_TYPE":"PAYLOAD","BSTAR":"0.00168790000000","OBJECT_NAME":"STARLINK-3339","ARG_OF_PERICENTER":"40.1700","EPOCH":"2022-05-19T22:00:00.999936","TIME_SYSTEM":"UTC","MEAN_ANOMALY":"43.1655","RA_OF_ASC_NODE":"288.0616","REF_FRAME":"TEME","PERIAPSIS":"538.459","LAUNCH_DATE":"2022-01-06","NORAD_CAT_ID":"50820","MEAN_MOTION_DDOT":"0.0000000000000","APOAPSIS":"541.128","MEAN_MOTION_DOT":"0.00026666"},{"TLE_LINE2":"2 50821  53.2182 288.0634 0001918  41.2447 122.0665 15.08822930  1305","ECCENTRICITY":"0.00019180","SEMIMAJOR_AXIS":"6917.933","OBJECT_ID":"2022-001U","GP_ID":"203988868","EPHEMERIS_TYPE":"0","PERIOD":"95.439","INCLINATION":"53.2182","CLASSIFICATION_TYPE":"U","TLE_LINE1":"1 50821U 22001U   22139.91667824  .00016889  00000-0  10772-2 0  9992","MEAN_MOTION":"15.08822930","SITE":"AFETR","ELEMENT_SET_NO":"999","REV_AT_EPOCH":"130","DECAY_DATE":null,"FILE":"3453812","MEAN_ELEMENT_THEORY":"SGP4","RCS_SIZE":"LARGE","APOAPSIS":"541.124","MEAN_MOTION_DOT":"0.00016889","NORAD_CAT_ID":"50821","MEAN_MOTION_DDOT":"0.0000000000000","LAUNCH_DATE":"2022-01-06","PERIAPSIS":"538.471","MEAN_ANOMALY":"122.0665","RA_OF_ASC_NODE":"288.0634","REF_FRAME":"TEME","TIME_SYSTEM":"UTC","EPOCH":"2022-05-19T22:00:00.999936","BSTAR":"0.00107720000000","ARG_OF_PERICENTER":"41.2447","OBJECT_NAME":"STARLINK-3346","CENTER_NAME":"EARTH","OBJECT_TYPE":"PAYLOAD","COUNTRY_CODE":"US"},{"DECAY_DATE":null,"RCS_SIZE":"LARGE","FILE":"3453812","MEAN_ELEMENT_THEORY":"SGP4","ELEMENT_SET_NO":"999","SITE":"AFETR","MEAN_MOTION":"15.08827155","REV_AT_EPOCH":"130","CLASSIFICATION_TYPE":"U","TLE_LINE1":"1 50822U 22001V   22139.91667824  .00024594  00000-0  15585-2 0  9992","PERIOD":"95.438","INCLINATION":"53.2184","EPHEMERIS_TYPE":"0","GP_ID":"203990119","ECCENTRICITY":"0.00019250","SEMIMAJOR_AXIS":"6917.920","OBJECT_ID":"2022-001V","TLE_LINE2":"2 50822  53.2184 288.0625 0001925  38.2998  85.0389 15.08827155  1308","COUNTRY_CODE":"US","CENTER_NAME":"EARTH","OBJECT_TYPE":"PAYLOAD","EPOCH":"2022-05-19T22:00:00.999936","ARG_OF_PERICENTER":"38.2998","OBJECT_NAME":"STARLINK-3343","BSTAR":"0.00155850000000","TIME_SYSTEM":"UTC","REF_FRAME":"TEME","MEAN_ANOMALY":"85.0389","RA_OF_ASC_NODE":"288.0625","MEAN_MOTION_DDOT":"0.0000000000000","NORAD_CAT_ID":"50822","LAUNCH_DATE":"2022-01-06","PERIAPSIS":"538.453","MEAN_MOTION_DOT":"0.00024594","APOAPSIS":"541.116"}];
